[{"OBJECT_NAME":"STARLINK-37002","OBJECT_ID":"2026-049Y","EPOCH":"2026-03-28T22:00:01.999584","MEAN_MOTION":15.80768339,"ECCENTRICITY":0.0001524,"INCLINATION":97.2846,"RA_OF_ASC_NODE":108.1431,"ARG_OF_PERICENTER":93.6509,"MEAN_ANOMALY":32.805,"EPHEMERIS_TYPE":0,"CLASSIFICATION_TYPE":"U","NORAD_CAT_ID":68164,"ELEMENT_SET_NO":999,"REV_AT_EPOCH":371,"BSTAR":0.00041975239,"MEAN_MOTION_DOT":0.00080834,"MEAN_MOTION_DDOT":0},{"OBJECT_NAME":"STARLINK-36971","OBJECT_ID":"2026-049Z","EPOCH":"2026-03-28T22:00:01.999584","MEAN_MOTION":15.80784963,"ECCENTRICITY":0.00017725,"INCLINATION":97.2846,"RA_OF_ASC_NODE":108.1471,"ARG_OF_PERICENTER":96.944,"MEAN_ANOMALY":38.0391,"EPHEMERIS_TYPE":0,"CLASSIFICATION_TYPE":"U","NORAD_CAT_ID":68165,"ELEMENT_SET_NO":999,"REV_AT_EPOCH":371,"BSTAR":0.00045444078,"MEAN_MOTION_DOT":0.00087663,"MEAN_MOTION_DDOT":0},{"OBJECT_NAME":"STARLINK-36273","OBJECT_ID":"2026-049AA","EPOCH":"2026-03-28T22:00:01.999584","MEAN_MOTION":15.75176783,"ECCENTRICITY":0.00010541,"INCLINATION":97.2844,"RA_OF_ASC_NODE":108.134,"ARG_OF_PERICENTER":92.3311,"MEAN_ANOMALY":8.2892,"EPHEMERIS_TYPE":0,"CLASSIFICATION_TYPE":"U","NORAD_CAT_ID":68166,"ELEMENT_SET_NO":999,"REV_AT_EPOCH":372,"BSTAR":2.4586194e-5,"MEAN_MOTION_DOT":3.537e-5,"MEAN_MOTION_DDOT":0},{"OBJECT_NAME":"STARLINK-36969","OBJECT_ID":"2026-050A","EPOCH":"2026-03-28T17:13:54.001632","MEAN_MOTION":15.80948334,"ECCENTRICITY":0.00010685,"INCLINATION":53.1595,"RA_OF_ASC_NODE":186.4795,"ARG_OF_PERICENTER":74.299,"MEAN_ANOMALY":285.815,"EPHEMERIS_TYPE":0,"CLASSIFICATION_TYPE":"U","NORAD_CAT_ID":68167,"ELEMENT_SET_NO":999,"REV_AT_EPOCH":348,"BSTAR":0.0011000967,"MEAN_MOTION_DOT":0.00222893,"MEAN_MOTION_DDOT":0},{"OBJECT_NAME":"STARLINK-36984","OBJECT_ID":"2026-050B","EPOCH":"2026-03-28T18:43:50.958624","MEAN_MOTION":15.80985767,"ECCENTRICITY":8.461e-5,"INCLINATION":53.1595,"RA_OF_ASC_NODE":186.1574,"ARG_OF_PERICENTER":59.0312,"MEAN_ANOMALY":301.0794,"EPHEMERIS_TYPE":0,"CLASSIFICATION_TYPE":"U","NORAD_CAT_ID":68168,"ELEMENT_SET_NO":999,"REV_AT_EPOCH":349,"BSTAR":0.0013864567,"MEAN_MOTION_DOT":0.00283594,"MEAN_MOTION_DDOT":0},{"OBJECT_NAME":"STARLINK-37077","OBJECT_ID":"2026-050C","EPOCH":"2026-03-28T18:42:45.495936","MEAN_MOTION":15.80932468,"ECCENTRICITY":8.596e-5,"INCLINATION":53.1595,"RA_OF_ASC_NODE":186.1519,"ARG_OF_PERICENTER":101.7515,"MEAN_ANOMALY":258.3604,"EPHEMERIS_TYPE":0,"CLASSIFICATION_TYPE":"U","NORAD_CAT_ID":68169,"ELEMENT_SET_NO":999,"REV_AT_EPOCH":349,"BSTAR":0.00070823832,"MEAN_MOTION_DOT":0.0014179,"MEAN_MOTION_DDOT":0},{"OBJECT_NAME":"STARLINK-37003","OBJECT_ID":"2026-050D","EPOCH":"2026-03-28T18:41:40.752960","MEAN_MOTION":15.80945554,"ECCENTRICITY":0.00010343,"INCLINATION":53.1596,"RA_OF_ASC_NODE":186.1471,"ARG_OF_PERICENTER":124.0023,"MEAN_ANOMALY":236.1099,"EPHEMERIS_TYPE":0,"CLASSIFICATION_TYPE":"U","NORAD_CAT_ID":68170,"ELEMENT_SET_NO":999,"REV_AT_EPOCH":349,"BSTAR":0.00094782246,"MEAN_MOTION_DOT":0.00191208,"MEAN_MOTION_DDOT":0},{"OBJECT_NAME":"STARLINK-37034","OBJECT_ID":"2026-050E","EPOCH":"2026-03-28T18:40:35.899392","MEAN_MOTION":15.80936884,"ECCENTRICITY":7.317e-5,"INCLINATION":53.1595,"RA_OF_ASC_NODE":186.142,"ARG_OF_PERICENTER":96.2006,"MEAN_ANOMALY":263.9101,"EPHEMERIS_TYPE":0,"CLASSIFICATION_TYPE":"U","NORAD_CAT_ID":68171,"ELEMENT_SET_NO":999,"REV_AT_EPOCH":349,"BSTAR":0.0008086236,"MEAN_MOTION_DOT":0.00162411,"MEAN_MOTION_DDOT":0},{"OBJECT_NAME":"STARLINK-37031","OBJECT_ID":"2026-050F","EPOCH":"2026-03-28T18:39:32.105088","MEAN_MOTION":15.80936088,"ECCENTRICITY":0.00011633,"INCLINATION":53.1592,"RA_OF_ASC_NODE":186.136,"ARG_OF_PERICENTER":64.4936,"MEAN_ANOMALY":295.6207,"EPHEMERIS_TYPE":0,"CLASSIFICATION_TYPE":"U","NORAD_CAT_ID":68172,"ELEMENT_SET_NO":999,"REV_AT_EPOCH":349,"BSTAR":0.00096630936,"MEAN_MOTION_DOT":0.00194951,"MEAN_MOTION_DDOT":0},{"OBJECT_NAME":"STARLINK-37076","OBJECT_ID":"2026-050G","EPOCH":"2026-03-28T18:38:27.041568","MEAN_MOTION":15.80984803,"ECCENTRICITY":9.481e-5,"INCLINATION":53.1593,"RA_OF_ASC_NODE":186.1319,"ARG_OF_PERICENTER":97.0573,"MEAN_ANOMALY":263.0558,"EPHEMERIS_TYPE":0,"CLASSIFICATION_TYPE":"U","NORAD_CAT_ID":68173,"ELEMENT_SET_NO":999,"REV_AT_EPOCH":349,"BSTAR":0.0014496666,"MEAN_MOTION_DOT":0.00297008,"MEAN_MOTION_DDOT":0},{"OBJECT_NAME":"STARLINK-37078","OBJECT_ID":"2026-050H","EPOCH":"2026-03-28T18:37:21.090720","MEAN_MOTION":15.80930358,"ECCENTRICITY":0.00010773,"INCLINATION":53.1593,"RA_OF_ASC_NODE":186.1259,"ARG_OF_PERICENTER":44.4895,"MEAN_ANOMALY":315.6214,"EPHEMERIS_TYPE":0,"CLASSIFICATION_TYPE":"U","NORAD_CAT_ID":68174,"ELEMENT_SET_NO":999,"REV_AT_EPOCH":349,"BSTAR":0.00039335511,"MEAN_MOTION_DOT":0.00077846,"MEAN_MOTION_DDOT":0},{"OBJECT_NAME":"STARLINK-36886","OBJECT_ID":"2026-050J","EPOCH":"2026-03-28T18:36:17.892576","MEAN_MOTION":15.80893409,"ECCENTRICITY":0.00015187,"INCLINATION":53.1597,"RA_OF_ASC_NODE":186.1222,"ARG_OF_PERICENTER":81.5817,"MEAN_ANOMALY":278.5378,"EPHEMERIS_TYPE":0,"CLASSIFICATION_TYPE":"U","NORAD_CAT_ID":68175,"ELEMENT_SET_NO":999,"REV_AT_EPOCH":349,"BSTAR":0.00046200959,"MEAN_MOTION_DOT":0.00091546,"MEAN_MOTION_DDOT":0},{"OBJECT_NAME":"STARLINK-36905","OBJECT_ID":"2026-050K","EPOCH":"2026-03-28T18:35:12.325344","MEAN_MOTION":15.80980249,"ECCENTRICITY":6.742e-5,"INCLINATION":53.1592,"RA_OF_ASC_NODE":186.1169,"ARG_OF_PERICENTER":79.3009,"MEAN_ANOMALY":280.809,"EPHEMERIS_TYPE":0,"CLASSIFICATION_TYPE":"U","NORAD_CAT_ID":68176,"ELEMENT_SET_NO":999,"REV_AT_EPOCH":349,"BSTAR":0.0012465635,"MEAN_MOTION_DOT":0.00253961,"MEAN_MOTION_DDOT":0},{"OBJECT_NAME":"STARLINK-36668","OBJECT_ID":"2026-050L","EPOCH":"2026-03-28T18:34:07.815648","MEAN_MOTION":15.80965646,"ECCENTRICITY":5.209e-5,"INCLINATION":53.1593,"RA_OF_ASC_NODE":186.1114,"ARG_OF_PERICENTER":62.2511,"MEAN_ANOMALY":297.8565,"EPHEMERIS_TYPE":0,"CLASSIFICATION_TYPE":"U","NORAD_CAT_ID":68177,"ELEMENT_SET_NO":999,"REV_AT_EPOCH":349,"BSTAR":0.001258373,"MEAN_MOTION_DOT":0.00256273,"MEAN_MOTION_DDOT":0},{"OBJECT_NAME":"STARLINK-36677","OBJECT_ID":"2026-050M","EPOCH":"2026-03-28T18:33:03.063168","MEAN_MOTION":15.80956585,"ECCENTRICITY":8.382e-5,"INCLINATION":53.1593,"RA_OF_ASC_NODE":186.1061,"ARG_OF_PERICENTER":77.0978,"MEAN_ANOMALY":283.0139,"EPHEMERIS_TYPE":0,"CLASSIFICATION_TYPE":"U","NORAD_CAT_ID":68178,"ELEMENT_SET_NO":999,"REV_AT_EPOCH":349,"BSTAR":0.0011500086,"MEAN_MOTION_DOT":0.00233415,"MEAN_MOTION_DDOT":0},{"OBJECT_NAME":"STARLINK-37052","OBJECT_ID":"2026-050N","EPOCH":"2026-03-28T18:31:58.521504","MEAN_MOTION":15.80963629,"ECCENTRICITY":0.00012514,"INCLINATION":53.1589,"RA_OF_ASC_NODE":186.1014,"ARG_OF_PERICENTER":63,"MEAN_ANOMALY":297.115,"EPHEMERIS_TYPE":0,"CLASSIFICATION_TYPE":"U","NORAD_CAT_ID":68179,"ELEMENT_SET_NO":999,"REV_AT_EPOCH":349,"BSTAR":0.0014477526,"MEAN_MOTION_DOT":0.00296298,"MEAN_MOTION_DDOT":0}]
