STARLINK-37002          
1 68164U 26049Y   26087.91668981  .00080834  00000+0  41975-3 0  9998
2 68164  97.2846 108.1431 0001524  93.6509  32.8050 15.80768339  3714
STARLINK-36971          
1 68165U 26049Z   26087.91668981  .00087663  00000+0  45444-3 0  9991
2 68165  97.2846 108.1471 0001772  96.9440  38.0391 15.80784963  3711
STARLINK-36273          
1 68166U 26049AA  26087.91668981  .00003537  00000+0  24586-4 0  9995
2 68166  97.2844 108.1340 0001054  92.3311   8.2892 15.75176783  3720
STARLINK-36969          
1 68167U 26050A   26087.71798613  .00222893  00000+0  11001-2 0  9996
2 68167  53.1595 186.4795 0001068  74.2990 285.8150 15.80948334  3483
STARLINK-36984          
1 68168U 26050B   26087.78045091  .00283594  00000+0  13865-2 0  9994
2 68168  53.1595 186.1574 0000846  59.0312 301.0794 15.80985767  3495
STARLINK-37077          
1 68169U 26050C   26087.77969324  .00141790  00000+0  70824-3 0  9998
2 68169  53.1595 186.1519 0000859 101.7515 258.3604 15.80932468  3493
STARLINK-37003          
1 68170U 26050D   26087.77894390  .00191208  00000+0  94782-3 0  9998
2 68170  53.1596 186.1471 0001034 124.0023 236.1099 15.80945554  3493
STARLINK-37034          
1 68171U 26050E   26087.77819328  .00162411  00000+0  80862-3 0  9995
2 68171  53.1595 186.1420 0000731  96.2006 263.9101 15.80936884  3499
STARLINK-37031          
1 68172U 26050F   26087.77745492  .00194951  00000+0  96631-3 0  9991
2 68172  53.1592 186.1360 0001163  64.4936 295.6207 15.80936088  3494
STARLINK-37076          
1 68173U 26050G   26087.77670187  .00297008  00000+0  14497-2 0  9996
2 68173  53.1593 186.1319 0000948  97.0573 263.0558 15.80984803  3495
STARLINK-37078          
1 68174U 26050H   26087.77593855  .00077846  00000+0  39336-3 0  9999
2 68174  53.1593 186.1259 0001077  44.4895 315.6214 15.80930358  3495
STARLINK-36886          
1 68175U 26050J   26087.77520709  .00091546  00000+0  46201-3 0  9990
2 68175  53.1597 186.1222 0001518  81.5817 278.5378 15.80893409  3499
STARLINK-36905          
1 68176U 26050K   26087.77444821  .00253961  00000+0  12466-2 0  9997
2 68176  53.1592 186.1169 0000674  79.3009 280.8090 15.80980249  3491
STARLINK-36668          
1 68177U 26050L   26087.77370157  .00256273  00000+0  12584-2 0  9998
2 68177  53.1593 186.1114 0000520  62.2511 297.8565 15.80965646  3491
STARLINK-36677          
1 68178U 26050M   26087.77295212  .00233415  00000+0  11500-2 0  9997
2 68178  53.1593 186.1061 0000838  77.0978 283.0139 15.80956585  3492
STARLINK-37052          
1 68179U 26050N   26087.77220511  .00296298  00000+0  14478-2 0  9993
2 68179  53.1589 186.1014 0001251  63.0000 297.1150 15.80963629  3493
